0 COSMOS 2251 DEB
1 37511U 93036BMQ 13276.72080984  .00016527  00000-0  28087-2 0  1186
2 37511 074.0641 047.5372 0053276 197.0202 162.9675 14.68165508195413
0 COSMOS 2251 DEB
1 37511U 93036BMQ 13276.73353131  .00015577  00000-0  26513-2 0  1180
2 37511 074.0566 047.4980 0052481 198.5809 228.6109 14.68161419195418
0 COSMOS 2251 DEB
1 37511U 93036BMQ 13279.71890656  .00013823  00000-0  23590-2 0  1194
2 37511 074.0453 041.7545 0047350 191.2654 168.5735 14.68239982195850
0 COSMOS 2251 DEB
1 37511U 93036BMQ 13282.71689424  .00012705  00000-0  21628-2 0  1207
2 37511 074.0484 035.9580 0049014 185.8171 174.1505 14.68310770196292
0 COSMOS 2251 DEB
1 37511U 93036BMQ 13285.91912110  .00017177  00000-0  29012-2 0  1217
2 37511 074.0643 029.7531 0053318 180.4901 180.2154 14.68451274196765
0 COSMOS 2251 DEB
1 37511U 93036BMQ 13289.60990861  .00023738  00000-0  39965-2 0  1225
2 37511 074.0564 022.6253 0051012 172.1487 252.4969 14.68607172197303
